[{"OBJECT_NAME":"VIZARD-METEO (RS38S)","OBJECT_ID":"2023-091Z","EPOCH":"2026-03-09T23:01:09.168960","MEAN_MOTION":15.32764799,"ECCENTRICITY":0.00087615,"INCLINATION":97.5192,"RA_OF_ASC_NODE":136.6522,"ARG_OF_PERICENTER":71.7666,"MEAN_ANOMALY":288.4529,"EPHEMERIS_TYPE":0,"CLASSIFICATION_TYPE":"U","NORAD_CAT_ID":57189,"ELEMENT_SET_NO":999,"REV_AT_EPOCH":14947,"BSTAR":0.00066106249,"MEAN_MOTION_DOT":0.00020895,"MEAN_MOTION_DDOT":0},{"OBJECT_NAME":"STARLINK-32142","OBJECT_ID":"2024-132P","EPOCH":"2026-03-09T05:29:21.462432","MEAN_MOTION":15.3020186,"ECCENTRICITY":0.00013548,"INCLINATION":53.1607,"RA_OF_ASC_NODE":54.294,"ARG_OF_PERICENTER":83.9682,"MEAN_ANOMALY":276.1473,"EPHEMERIS_TYPE":0,"CLASSIFICATION_TYPE":"U","NORAD_CAT_ID":60291,"ELEMENT_SET_NO":999,"REV_AT_EPOCH":9149,"BSTAR":-9.6060923e-5,"MEAN_MOTION_DOT":-3.203e-5,"MEAN_MOTION_DDOT":0}]
